OBJECT_NAME,OBJECT_ID,EPOCH,MEAN_MOTION,ECCENTRICITY,INCLINATION,RA_OF_ASC_NODE,ARG_OF_PERICENTER,MEAN_ANOMALY,EPHEMERIS_TYPE,CLASSIFICATION_TYPE,NORAD_CAT_ID,ELEMENT_SET_NO,REV_AT_EPOCH,BSTAR,MEAN_MOTION_DOT,MEAN_MOTION_DDOT
NOAA 18,2005-018A,2026-06-18T06:06:23.712768,14.13729444,.00149451,98.8114,248.9160,144.7088,215.5077,0,U,28654,999,8646,.46367555E-4,.44E-6,0
SJ-7,2005-024A,2026-06-18T01:51:00.885312,15.21555365,.00162545,97.7279,199.2047,35.0627,325.1675,0,U,28737,999,14816,.29546314E-3,.6608E-4,0
CUBESAT XI-V,2005-043F,2026-06-17T22:42:29.709216,14.72633352,.00137043,98.2987,324.5839,198.2082,161.8635,0,U,28895,999,10186,.18286399E-3,.1113E-4,0
CLOUDSAT,2006-016A,2026-06-18T03:49:11.154432,14.86396029,.00046366,98.3927,206.5036,343.6972,16.4092,0,U,29107,999,7465,.102274E-3,.842E-5,0
CALIPSO,2006-016B,2026-06-18T06:00:41.917824,14.69351834,.00009352,98.4469,184.9505,88.1166,272.0146,0,U,29108,999,7321,.13770422E-3,.761E-5,0
HINODE (SOLAR-B),2006-041A,2026-06-18T00:04:15.174624,14.68624001,.00159936,98.0546,185.1434,286.9225,73.0227,0,U,29479,999,5499,.96817776E-4,.514E-5,0
METOP-A,2006-044A,2026-06-18T05:42:37.374912,14.75980752,.01749715,98.3335,275.9719,66.2591,140.1823,0,U,29499,999,2560,.17657907E-3,.1496E-4,0
SHIJIAN-6 02B (SJ-6 02B),2006-046B,2026-06-18T08:18:17.839584,15.01379366,.00153832,97.7152,198.3977,57.1126,303.1576,0,U,29506,999,7091,.74897634E-4,.907E-5,0
DMSP 5D-3 F17 (USA 191),2006-050A,2026-06-18T07:13:33.059712,14.14993091,.00111365,98.7378,175.8484,56.4810,303.7426,0,U,29522,999,1258,.14717429E-4,-.15E-6,0
LAPAN-TUBSAT,2007-001A,2026-06-18T06:20:46.010688,14.85948675,.00119423,98.1336,168.5126,175.9398,184.1916,0,U,29709,999,5131,-.22365102E-4,-.253E-5,0
HAIYANG-1B,2007-010A,2026-06-17T21:56:03.475968,14.31027083,.00130613,98.3495,150.7309,194.0963,165.9858,0,U,31113,999,74,.43338499E-4,.72E-6,0
BEIDOU-2 M1,2007-011A,2026-06-15T16:30:47.139840,1.77349393,.0001627,50.9312,219.3283,340.3876,19.7021,0,U,31115,999,7612,0,.46E-6,0
CAPE-1,2007-012P,2026-06-17T20:28:47.070912,14.64876429,.00848187,98.4461,143.3655,69.4475,291.5803,0,U,31130,999,1845,.23156948E-3,.1249E-4,0
CBERS 2B,2007-042A,2026-06-18T07:14:05.057088,14.41476624,.00304827,98.3924,113.9314,333.7023,181.7478,0,U,32062,999,98484,.71425825E-4,.19E-5,0
COSMO-SKYMED 2,2007-059A,2026-06-18T05:47:20.963040,14.82155760,.00013458,97.8886,352.8238,87.9559,272.1809,0,U,32376,999,216,.44426941E-4,.301E-5,0
CARTOSAT-2A,2008-021A,2026-06-18T06:20:19.031424,14.79239633,.00132059,97.7629,217.9361,105.6065,254.6605,0,U,32783,999,97896,.39696442E-4,.245E-5,0
CUTE-1.7+APD II (CO-65),2008-021C,2026-06-18T05:50:06.773280,15.09458737,.000964,97.8274,150.6836,35.5766,324.6103,0,U,32785,999,98535,.26362178E-3,.4157E-4,0
SEEDS II (CO-66),2008-021J,2026-06-17T23:37:19.535232,15.32775092,.00009507,97.7517,166.9199,0.1361,359.9880,0,U,32791,999,98741,.47643049E-3,.1501E-3,0
YUBILEINY (RS30),2008-025A,2026-06-18T05:24:13.386816,12.43179619,.00188146,82.5036,354.7940,311.5563,48.3903,0,U,32953,999,81982,.35271336E-3,.59E-6,0
FENGYUN 3A,2008-026A,2026-06-17T19:44:36.909024,14.19571285,.00096151,98.6883,109.6439,121.9890,238.2222,0,U,32958,999,93549,.46601221E-4,.55E-6,0
HUANJING 1A (HJ-1A),2008-041A,2026-06-18T05:53:02.397696,14.83987953,.00200233,97.6680,155.0427,131.4518,228.8421,0,U,33320,999,95856,.13287412E-3,.1058E-4,0
HUANJING 1B (HJ-1B),2008-041B,2026-06-18T06:46:19.947648,14.83320532,.0036137,97.6516,158.2471,177.2568,182.8852,0,U,33321,999,95857,.13856177E-3,.1095E-4,0
SHIJIAN-6 03A (SJ-6 03A),2008-053A,2026-06-18T05:39:48.780000,15.17174687,.00114838,97.8400,202.5932,16.7827,343.3783,0,U,33408,999,96312,.21933065E-3,.4289E-4,0
SHIJIAN-6 03B (SJ-6 03B),2008-053B,2026-06-18T07:07:52.095072,15.04308907,.00207234,97.8567,189.2076,41.5005,318.7789,0,U,33409,999,96291,.49214447E-4,.623E-5,0
CHUANGXIN 1-02 (CX-1-02),2008-056B,2026-06-18T08:19:37.666272,14.30153611,.00150506,98.6128,195.6025,133.3105,226.9335,0,U,33434,999,91878,.59799975E-4,.111E-5,0
STARS (KUKAI),2009-002G,2026-06-18T06:56:40.352352,14.95758692,.00088792,98.1557,116.6430,155.5864,204.5778,0,U,33498,999,93864,.21685528E-3,.2356E-4,0
KKS-1 (KISEKI),2009-002H,2026-06-18T06:26:46.196736,14.83126512,.00064728,98.1189,91.7280,291.6711,68.3813,0,U,33499,999,93635,.13456769E-3,.1041E-4,0
NOAA 19,2009-005A,2026-06-18T06:05:04.142688,14.13474404,.00142255,98.9520,240.1291,31.5197,328.6825,0,U,33591,999,89463,.43448333E-4,.37E-6,0
UK-DMC 2,2009-041C,2026-06-17T21:41:21.875424,14.76027623,.00011303,97.8843,303.8527,90.3032,269.8308,0,U,35683,999,90667,.93534888E-4,.595E-5,0
METEOR-M 1,2009-049A,2026-06-17T22:03:32.048352,14.23157008,.0001564,98.7385,131.3874,335.8254,24.2850,0,U,35865,999,86935,.43378041E-4,.54E-6,0
OCEANSAT-2,2009-051A,2026-06-18T06:31:26.391072,13.99664212,.00152879,98.2324,156.0151,232.6871,127.2903,0,U,35931,999,87948,-.77797241E-4,-.152E-5,0
SWISSCUBE,2009-051B,2026-06-18T04:40:41.275488,14.62483315,.00060265,98.4035,77.1008,199.5178,160.5793,0,U,35932,999,88930,.16095583E-3,.766E-5,0
BEESAT-1,2009-051C,2026-06-17T14:07:52.707072,14.61721012,.0004244,98.3963,76.1188,215.3453,144.7466,0,U,35933,999,88924,.13834E-3,.64E-5,0
ITUPSAT1,2009-051E,2026-06-18T04:43:11.614080,14.60442029,.00062858,98.4047,75.9267,230.1057,129.9590,0,U,35935,999,88888,.13197175E-3,.591E-5,0
DMSP 5D-3 F18 (USA 210),2009-057A,2026-06-18T06:32:26.623104,14.14897369,.00099145,98.9038,150.0392,246.0587,113.9548,0,U,35951,999,85974,.14030025E-3,.226E-5,0
PROBA-2,2009-059B,2026-06-18T01:34:43.386816,14.54862763,.00119481,98.2450,352.4063,279.1293,80.8552,0,U,36037,999,88165,.40499828E-4,.129E-5,0
YAOGAN-7,2009-069A,2026-06-18T02:30:09.720288,14.78010700,.00255232,98.0071,54.9657,38.9227,321.3815,0,U,36110,999,88976,.59312095E-4,.377E-5,0
XIWANG-1 (HOPE-1),2009-072B,2026-06-18T07:23:19.936896,13.16440161,.00068687,100.4031,123.1226,228.8335,131.2186,0,U,36122,999,79315,.9145708E-3,.305E-5,0
RADUGA-1M 2,2010-002A,2026-06-18T04:06:02.170944,0.98966856,.00056526,3.6245,78.8463,265.7675,287.4628,0,U,36358,999,5003,0,-.184E-5,0
COSMOS 2463,2010-017A,2026-06-18T04:55:26.048640,13.71665752,.00373788,82.9605,248.9579,126.1460,264.5402,0,U,36519,999,80807,.43496871E-4,.55E-6,0
CARTOSAT-2B,2010-035A,2026-06-18T06:53:22.461792,14.78661161,.00112331,97.9948,219.8298,180.1256,179.9954,0,U,36795,999,86001,.34640696E-4,.202E-5,0
AISSAT 1,2010-035C,2026-06-18T05:06:02.971296,14.97371955,.00106647,98.0929,68.4928,59.7113,300.5162,0,U,36797,999,86437,.19022872E-3,.2149E-4,0
TISAT 1,2010-035E,2026-06-18T07:01:54.736032,15.31742601,.00015448,98.0713,115.9399,166.4985,193.6296,0,U,36799,999,86787,.50955387E-3,.15546E-3,0
YAOGAN-10,2010-038A,2026-06-18T07:21:52.246944,14.85351879,.0001675,97.8968,192.7023,87.7644,40.5488,0,U,36834,999,85737,.18236111E-3,.1515E-4,0
SHIJIAN-6 04B (SJ-6 04B),2010-051B,2026-06-18T06:59:01.956768,14.99316485,.00078757,97.8680,174.7123,311.1041,48.9501,0,U,37180,999,85584,.84812215E-4,.975E-5,0
FENGYUN 3B,2010-059A,2026-06-18T07:24:22.804992,14.14840851,.00219743,98.9613,215.3283,180.7663,315.4874,0,U,37214,999,80758,-.14487567E-4,-.73E-6,0
COSMO-SKYMED 4,2010-060A,2026-06-18T06:05:35.524032,14.82152119,.00013832,97.8880,352.8374,80.9733,279.1637,0,U,37216,999,84472,-.6778118E-5,-.106E-5,0
O/OREOS (USA 219),2010-062C,2026-06-18T03:12:34.010208,14.93748266,.00125686,71.9713,78.1955,61.0005,299.2424,0,U,37224,999,11678,.17758614E-3,.1822E-4,0
ELEKTRO-L 1 (GOMS 2),2011-001A,2026-06-18T05:32:43.741248,1.00156092,.00041504,9.6890,54.4965,29.6237,153.5856,0,U,37344,999,5649,0,-.46E-6,0
RESOURCESAT-2,2011-015A,2026-06-18T05:09:47.276064,14.21606818,.00102318,98.7644,236.6499,252.2200,107.7861,0,U,37387,999,78632,.63943837E-4,.96E-6,0
YOUTHSAT,2011-015B,2026-06-17T22:16:37.665408,14.25630535,.00141583,98.3682,142.9489,344.9180,75.3242,0,U,37388,999,78774,.74208641E-4,.135E-5,0
APRIZESAT 6,2011-044F,2026-06-18T05:56:37.192416,14.76917308,.0044505,98.2363,79.7689,82.7527,68.0651,0,U,37793,999,79730,.94502061E-4,.619E-5,0
JUGNU,2011-058B,2026-06-17T02:28:52.788864,14.13776752,.0018637,19.9617,308.9384,75.2680,81.6214,0,U,37839,999,75901,.67694954E-4,.397E-5,0
SRMSAT,2011-058D,2026-06-18T02:04:29.184096,14.11575739,.00117662,19.9725,54.0235,213.5570,297.0907,0,U,37841,999,75794,.49076111E-4,.356E-5,0
SUOMI NPP,2011-061A,2026-06-18T06:09:52.899264,14.19517581,.00014743,98.7953,110.1256,4.2138,355.9050,0,U,37849,999,75859,.4603281E-4,.53E-6,0
YAOGAN-12,2011-066B,2026-06-18T05:58:30.283968,15.26611649,.00088617,97.1134,207.7676,212.5387,147.5307,0,U,37875,999,81220,.17819629E-3,.4602E-4,0
BEIDOU-2 M4,2012-018B,2026-06-16T14:00:59.327136,1.86229375,.00112916,55.6586,304.1100,275.7806,84.0759,0,U,38251,999,9593,0,-.71E-6,0
ARIRANG-3 (KOMPSAT-3),2012-025B,2026-06-18T06:20:49.432992,14.62206963,.00067069,98.1171,126.7058,106.6719,253.5220,0,U,38338,999,75150,.75991755E-4,.336E-5,0
HORYU-2,2012-025D,2026-06-17T21:50:50.997408,14.91071748,.00083919,98.2181,301.8759,171.4135,188.7228,0,U,38340,999,74883,.31162508E-3,.3027E-4,0
CSSWE,2012-048D,2026-06-18T04:46:05.746368,15.44504964,.00468673,64.6627,90.0660,173.4867,186.6890,0,U,38761,999,11655,.41438284E-3,.19922E-3,0
CP5,2012-048F,2026-06-18T02:45:20.123136,15.27758449,.00784667,64.6436,149.5216,176.0984,184.0776,0,U,38763,999,11690,.25785031E-3,.7461E-4,0
METOP-B,2012-049A,2026-06-18T07:34:52.544352,14.21433023,.00021686,98.6504,220.7926,16.8348,343.2901,0,U,38771,999,71342,.58122581E-4,.84E-6,0
SJ-9A,2012-056A,2026-06-18T05:48:47.332800,14.85480237,.00240152,97.6709,141.1555,252.9774,106.8810,0,U,38860,999,69974,.96422843E-4,.783E-5,0
COSMOS 2484 (RODNIK-S 6),2013-001C,2026-06-18T06:33:06.054336,12.42939487,.00268383,82.5010,221.2176,34.3178,325.9629,0,U,39059,999,60869,.70955432E-3,.108E-5,0
SARAL,2013-009A,2026-06-18T07:08:55.506624,14.32856167,.00006747,98.5557,355.8510,301.9018,58.2100,0,U,39086,999,69576,.37351987E-4,.58E-6,0
